OBJECT_NAME,OBJECT_ID,EPOCH,MEAN_MOTION,ECCENTRICITY,INCLINATION,RA_OF_ASC_NODE,ARG_OF_PERICENTER,MEAN_ANOMALY,EPHEMERIS_TYPE,CLASSIFICATION_TYPE,NORAD_CAT_ID,ELEMENT_SET_NO,REV_AT_EPOCH,BSTAR,MEAN_MOTION_DOT,MEAN_MOTION_DDOT
POLYTECH UNIVERSE-4,2024-199N,2026-06-13T05:32:01.395744,15.45449998,.00069159,97.3012,37.3410,297.5698,62.4848,0,U,61747,999,13675,.37778504E-3,.18029E-3,0
SITRO-AIS 44,2024-199P,2026-06-13T06:45:28.073088,15.67777887,.00019734,97.2895,43.2670,251.5039,108.6007,0,U,61748,999,13717,.71609698E-3,.78954E-3,0
VIZARD-ION (RS68S),2024-199Q,2026-06-13T06:41:48.960960,15.54854130,.00040832,97.3000,40.4405,287.4358,72.6450,0,U,61749,999,13696,.52165023E-3,.34795E-3,0
2024-199R,2024-199R,2026-06-13T06:45:47.494944,15.54975388,.00042673,97.2971,39.8956,304.6939,55.3913,0,U,61750,999,13694,.56107038E-3,.37613E-3,0
2024-199S,2024-199S,2026-06-13T05:57:40.108032,15.36762258,.00084066,97.3008,33.7313,330.7878,29.2895,0,U,61751,999,13653,.26591845E-3,.9482E-4,0
SITRO-AIS 14,2024-199T,2026-06-13T05:54:10.057536,14.97657797,.00083802,97.3244,3.8991,82.3193,277.8982,0,U,61752,999,13453,.27894547E-3,.3213E-4,0
HORS 3 (RS81S),2024-199U,2026-06-13T07:01:03.906912,15.54717972,.000377,97.2989,40.0569,302.4901,57.5989,0,U,61753,999,13695,.52666512E-3,.34955E-3,0
HORS 4 (RS82S),2024-199V,2026-06-13T06:21:04.764672,15.59337972,.00029632,97.2937,41.2048,284.7895,75.3034,0,U,61754,999,13703,.60394511E-3,.47673E-3,0
SITRO-AIS 43,2024-199W,2026-06-13T06:59:40.552512,15.68353903,.00018713,97.2915,43.4377,232.8330,127.2761,0,U,61755,999,13718,.72827079E-3,.82231E-3,0
SITRO-AIS 42,2024-199X,2026-06-13T06:15:38.144160,15.67882970,.00021981,97.2908,43.4753,303.7666,56.3386,0,U,61756,999,13718,.48239604E-3,.53212E-3,0
SITRO-AIS 20,2024-199Z,2026-06-13T07:04:26.434560,14.97922585,.00077606,97.3222,4.1095,86.0006,274.2104,0,U,61758,999,13455,.25329987E-3,.2933E-4,0
SITRO-AIS 19,2024-199AA,2026-06-13T05:33:06.257088,14.97898048,.00078665,97.3225,4.0453,87.3202,272.8922,0,U,61759,999,13454,.2768739E-3,.3209E-4,0
SITRO-AIS 41,2024-199AB,2026-06-13T05:47:56.227200,15.67044009,.00017061,97.2933,43.1157,234.9267,125.1834,0,U,61760,999,13715,.71485344E-3,.76492E-3,0
2024-199AC,2024-199AC,2026-06-13T06:50:48.369120,15.56735566,.00030272,97.2931,40.7152,281.2732,78.8183,0,U,61761,999,13700,.55305257E-3,.39557E-3,0
ARCTICSAT 1 (RS74S),2024-199AD,2026-06-13T02:49:45.609600,16.25959635,.00096568,97.2788,48.2183,221.8122,138.2434,0,U,61762,999,13747,.11680731E-2,.3579472E-1,.2405656E-5
SIT-HSE,2024-199AE,2026-06-13T05:53:31.364160,15.52436434,.00026253,97.2989,40.4387,302.6244,57.4755,0,U,61763,999,13697,.57390774E-3,.35077E-3,0
SIT-2086,2024-199AF,2026-06-13T06:22:55.373952,15.52830496,.00043341,97.2946,40.5201,272.2605,87.8152,0,U,61764,999,13382,.59219759E-3,.3673E-3,0
2024-199AK,2024-199AK,2026-06-13T06:39:53.927136,15.49518032,.0003308,97.2968,39.0389,317.4274,42.6721,0,U,61768,999,13373,.39779784E-3,.21859E-3,0
KOSAR,2024-199AL,2026-06-13T06:34:24.328416,15.53787439,.00022913,97.2953,40.2092,307.7458,52.3588,0,U,61769,999,13381,.49860673E-3,.3197E-3,0
SITRO-AIS 48,2024-199AN,2026-06-13T05:51:40.697856,15.57736072,.00049873,97.2938,40.0481,309.1936,50.8877,0,U,61771,999,13381,.61619586E-3,.45807E-3,0
HYPERVIEW 1G (RS66S),2024-199AP,2026-06-13T06:01:59.733984,15.74851223,.00028207,97.2884,43.7752,240.6111,119.4872,0,U,61772,999,13405,.91763481E-3,.136956E-2,0
SITRO-AIS 47,2024-199AQ,2026-06-13T06:51:36.492192,15.58465338,.00041563,97.2922,40.2901,303.7626,56.3234,0,U,61773,999,13383,.61033778E-3,.46623E-3,0
SITRO-AIS 46,2024-199AR,2026-06-13T06:45:35.968320,15.60124039,.00039543,97.2896,40.6914,307.6393,52.4505,0,U,61774,999,13386,.61068941E-3,.49685E-3,0
2024-199AS,2024-199AS,2026-06-13T06:19:48.772416,15.44274480,.0012694,97.2999,36.5619,295.5754,64.4182,0,U,61775,999,13356,.34649948E-3,.15909E-3,0
SITRO-AIS 40,2024-199AT,2026-06-13T06:15:05.832288,15.60411066,.00036358,97.2904,40.7322,306.0733,54.0187,0,U,61776,999,13701,.67057708E-3,.55201E-3,0
2024-199AU,2024-199AU,2026-06-13T05:32:36.729888,15.45459129,.00126378,97.3000,36.7519,294.9246,65.0690,0,U,61777,999,13357,.36437454E-3,.17426E-3,0
SITRO-AIS 39,2024-199AV,2026-06-13T05:36:46.030176,15.57595039,.00042857,97.2906,39.8779,305.3000,54.7855,0,U,61778,999,13380,.62886679E-3,.46503E-3,0
ALTAIR (RS65S),2024-199AW,2026-06-13T06:30:01.260288,15.36960112,.00114725,97.3040,33.6483,327.0577,32.9952,0,U,61779,999,13651,.29639244E-3,.10658E-3,0
SITRO-AIS 37,2024-199AX,2026-06-13T05:46:26.877504,15.58696384,.00047269,97.2937,40.2636,305.8275,54.2541,0,U,61780,999,13382,.63382327E-3,.48862E-3,0
ASRTU-1 (AO-123),2024-199AY,2026-06-13T06:07:40.074816,15.35622337,.00126368,97.3011,32.9622,329.7335,30.3178,0,U,61781,999,13332,.22414533E-3,.7701E-4,0
SAMSAT-IONOSPHERE (RS75S),2024-199BB,2026-06-13T06:26:56.785920,15.57303354,.00059046,97.2958,40.0655,297.2767,62.7887,0,U,61784,999,13695,.64310909E-3,.47064E-3,0
RTU MIREA 1 (RS51S),2024-199BC,2026-06-13T05:42:09.067680,15.60679895,.00054421,97.2945,40.8453,289.6521,70.4149,0,U,61785,999,13385,.65775189E-3,.54719E-3,0
SITRO-AIS 38,2024-199BD,2026-06-13T06:00:41.880672,15.48705924,.00072338,97.2956,38.4328,312.1401,47.9235,0,U,61786,999,13370,.55048942E-3,.29487E-3,0
2024-199BE,2024-199BE,2026-06-13T06:41:57.171552,15.36418548,.00120794,97.3019,33.2800,327.5559,32.4942,0,U,61787,999,13649,.26286439E-3,.928E-4,0
SITRO-AIS 45,2024-199BF,2026-06-13T06:02:40.949376,15.57878773,.00043189,97.2906,39.9752,305.7072,54.3782,0,U,61788,999,13379,.63959061E-3,.47809E-3,0
SITRO-AIS 17,2024-199BG,2026-06-13T06:52:11.740800,14.97928649,.00074405,97.3223,4.1517,89.7324,270.4752,0,U,61789,999,13145,.23412069E-3,.2707E-4,0
SITRO-AIS 18,2024-199BH,2026-06-13T05:35:04.524000,14.97887935,.00079455,97.3227,4.0480,88.3349,271.8784,0,U,61790,999,13144,.28211447E-3,.327E-4,0
STARLINK-32362,2024-202A,2026-06-11T10:17:21.630912,15.27585604,.0002492,42.9981,57.3694,258.3186,101.7386,0,U,61845,999,9038,.67268E-4,.1589E-4,0
STARLINK-32472,2024-202B,2026-06-12T23:20:18.533472,15.27607169,.00009815,43.0068,49.1774,274.9772,85.0968,0,U,61846,999,9002,-.50159689E-4,-.1643E-4,0
STARLINK-32352,2024-202C,2026-06-12T09:42:19.227744,15.27562708,.00001439,42.9967,51.7904,225.1159,134.9681,0,U,61847,999,8995,-.45849361E-4,-.1522E-4,0
STARLINK-32427,2024-202D,2026-06-12T10:04:30.771840,15.27579548,.00015621,43.0052,51.9107,278.8397,81.2278,0,U,61848,999,8994,.32286419E-4,.626E-5,0
STARLINK-32346,2024-202E,2026-06-12T22:43:18.663456,15.27579097,.00013412,43.0046,48.9826,265.5462,94.5236,0,U,61849,999,9002,.23347473E-4,.38E-5,0
STARLINK-32330,2024-202F,2026-06-12T10:43:07.972320,15.27571965,.00010941,43.0040,62.4951,247.8599,112.2137,0,U,61850,999,8983,-.4022956E-5,-.373E-5,0
STARLINK-32379,2024-202G,2026-06-12T23:44:10.879584,15.27565967,.00034709,42.9751,48.4422,252.0787,107.9686,0,U,61851,999,9003,-.18416072E-4,-.769E-5,0
STARLINK-32433,2024-202H,2026-06-12T23:21:55.270368,15.27583540,.00008205,43.0014,59.5666,253.0438,107.0324,0,U,61852,999,8991,.51158649E-4,.1146E-4,0
STARLINK-32394,2024-202J,2026-06-12T23:25:37.193088,15.27582529,.000092,42.9997,59.5859,242.4559,117.6199,0,U,61853,999,8990,.36873817E-4,.753E-5,0
STARLINK-32486,2024-202K,2026-06-12T23:31:12.105408,15.27568409,.00017431,43.0046,59.6176,270.5288,89.5364,0,U,61854,999,8991,-.12243035E-4,-.599E-5,0
STARLINK-32391,2024-202L,2026-06-12T23:36:43.692192,15.27580561,.00014909,42.9963,59.6418,256.3709,103.6976,0,U,61855,999,8990,.34569079E-4,.689E-5,0
STARLINK-32483,2024-202M,2026-06-12T23:42:16.881696,15.27580710,.00015167,42.9998,59.6729,266.6283,93.4395,0,U,61856,999,8991,.46014707E-4,.1004E-4,0
STARLINK-32451,2024-202N,2026-06-12T23:53:22.849440,15.27584735,.00010663,43.0092,59.7338,268.8059,91.2671,0,U,61857,999,8991,.11177329E-4,.45E-6,0
STARLINK-32556,2024-202P,2026-06-12T23:47:49.906176,15.27581614,.00010034,43.0055,59.7053,250.6606,109.4137,0,U,61858,999,8991,.42601311E-4,.91E-5,0
STARLINK-32466,2024-202Q,2026-06-12T00:24:44.251776,15.27589430,.00003437,43.0146,65.2961,201.4892,158.5945,0,U,61859,999,8976,.10109488E-4,.16E-6,0
STARLINK-32316,2024-202R,2026-06-12T23:33:43.490304,15.27586345,.0000649,43.0062,56.1674,260.1517,99.9262,0,U,61860,999,8994,.58770317E-4,.1356E-4,0
STARLINK-32415,2024-202S,2026-06-13T00:08:11.740416,15.27557323,.00012376,43.0058,59.8201,241.6412,118.4315,0,U,61861,999,8990,.17333643E-3,.4507E-4,0
STARLINK-32393,2024-202T,2026-06-13T00:02:37.884768,15.27584501,.00007591,42.9998,59.7812,265.8678,94.2087,0,U,61862,999,8991,.50325568E-4,.1123E-4,0
STARLINK-32324,2024-202U,2026-06-13T00:19:17.518944,15.27580508,.0000794,43.0152,59.8793,273.1709,86.9052,0,U,61863,999,8990,.10597333E-4,.29E-6,0
STARLINK-32318,2024-202V,2026-06-13T00:28:34.144032,15.27569164,.00014165,43.0032,59.9201,73.1801,286.9206,0,U,61864,999,8991,-.11882018E-4,-.589E-5,0
STARLINK-32401,2024-202W,2026-06-11T10:54:21.696192,15.27577291,.0000632,43.0083,68.8065,72.6200,287.4721,0,U,61865,999,8967,.24123E-4,.402E-5,0
STARLINK-32588,2024-202X,2026-06-13T00:24:50.044032,15.27581659,.00012322,43.0109,59.9043,280.7389,79.3324,0,U,61866,999,8991,-.5586337E-5,-.416E-5,0
STARLINK-32569,2024-202Y,2026-06-12T10:32:13.473312,15.27575306,.00039183,43.0196,63.2960,274.3052,85.7352,0,U,61867,999,8982,.10466118E-4,.24E-6,0
2024-203A,2024-203A,2026-06-13T06:56:20.651424,15.29955855,.00105162,97.4205,234.5962,348.0668,12.0322,0,U,61869,999,8836,.48777671E-3,.14103E-3,0
2024-203B,2024-203B,2026-06-13T06:58:29.500608,15.30179774,.00100318,97.4184,234.6168,346.5862,13.5110,0,U,61870,999,8837,.48362247E-3,.14077E-3,0
2024-203C,2024-203C,2026-06-13T07:15:33.057216,15.25308134,.00110043,97.4247,233.5668,7.4724,352.6676,0,U,61871,999,8827,.41344645E-3,.10362E-3,0
2024-203D,2024-203D,2026-06-13T06:47:04.208640,15.26991198,.00103822,97.4263,234.4396,4.0081,356.1239,0,U,61872,999,8832,.45609721E-3,.12035E-3,0
